[{"OBJECT_NAME":"STARLINK-36872","OBJECT_ID":"2026-037Z","EPOCH":"2026-03-05T22:00:01.999584","MEAN_MOTION":15.9400441,"ECCENTRICITY":0.00016973,"INCLINATION":42.9999,"RA_OF_ASC_NODE":221.6489,"ARG_OF_PERICENTER":284.5331,"MEAN_ANOMALY":92.8045,"EPHEMERIS_TYPE":0,"CLASSIFICATION_TYPE":"U","NORAD_CAT_ID":67955,"ELEMENT_SET_NO":999,"REV_AT_EPOCH":259,"BSTAR":-0.0037807155,"MEAN_MOTION_DOT":-0.01441389,"MEAN_MOTION_DDOT":0.00060147991},{"OBJECT_NAME":"STARLINK-36918","OBJECT_ID":"2026-037AA","EPOCH":"2026-03-05T22:00:01.999584","MEAN_MOTION":15.9412614,"ECCENTRICITY":0.00016917,"INCLINATION":43.0001,"RA_OF_ASC_NODE":221.6415,"ARG_OF_PERICENTER":285.7715,"MEAN_ANOMALY":94.5377,"EPHEMERIS_TYPE":0,"CLASSIFICATION_TYPE":"U","NORAD_CAT_ID":67956,"ELEMENT_SET_NO":999,"REV_AT_EPOCH":259,"BSTAR":-0.0037488621,"MEAN_MOTION_DOT":-0.01438584,"MEAN_MOTION_DDOT":0.00060005878},{"OBJECT_NAME":"STARLINK-36829","OBJECT_ID":"2026-037AB","EPOCH":"2026-03-05T22:00:01.999584","MEAN_MOTION":15.93880714,"ECCENTRICITY":0.00018066,"INCLINATION":42.9999,"RA_OF_ASC_NODE":221.657,"ARG_OF_PERICENTER":285.2143,"MEAN_ANOMALY":89.1067,"EPHEMERIS_TYPE":0,"CLASSIFICATION_TYPE":"U","NORAD_CAT_ID":67957,"ELEMENT_SET_NO":999,"REV_AT_EPOCH":259,"BSTAR":-0.003795819,"MEAN_MOTION_DOT":-0.01437719,"MEAN_MOTION_DDOT":0.00059794059},{"OBJECT_NAME":"STARLINK-36799","OBJECT_ID":"2026-037AC","EPOCH":"2026-03-05T22:00:01.999584","MEAN_MOTION":15.94249789,"ECCENTRICITY":0.0001872,"INCLINATION":42.9997,"RA_OF_ASC_NODE":221.6354,"ARG_OF_PERICENTER":285.769,"MEAN_ANOMALY":97.1797,"EPHEMERIS_TYPE":0,"CLASSIFICATION_TYPE":"U","NORAD_CAT_ID":67958,"ELEMENT_SET_NO":999,"REV_AT_EPOCH":259,"BSTAR":-0.0037207903,"MEAN_MOTION_DOT":-0.01437333,"MEAN_MOTION_DDOT":0.00059983802},{"OBJECT_NAME":"STARLINK-36834","OBJECT_ID":"2026-037AD","EPOCH":"2026-03-05T22:00:01.999584","MEAN_MOTION":15.94510473,"ECCENTRICITY":0.00016246,"INCLINATION":42.9998,"RA_OF_ASC_NODE":221.6199,"ARG_OF_PERICENTER":282.0368,"MEAN_ANOMALY":106.8132,"EPHEMERIS_TYPE":0,"CLASSIFICATION_TYPE":"U","NORAD_CAT_ID":67959,"ELEMENT_SET_NO":999,"REV_AT_EPOCH":259,"BSTAR":-0.0037317252,"MEAN_MOTION_DOT":-0.01461453,"MEAN_MOTION_DDOT":0.00062004503},{"OBJECT_NAME":"STARLINK-36841","OBJECT_ID":"2026-037AE","EPOCH":"2026-03-05T22:00:01.999584","MEAN_MOTION":15.94371409,"ECCENTRICITY":0.00016264,"INCLINATION":42.9997,"RA_OF_ASC_NODE":221.6277,"ARG_OF_PERICENTER":286.3273,"MEAN_ANOMALY":99.4334,"EPHEMERIS_TYPE":0,"CLASSIFICATION_TYPE":"U","NORAD_CAT_ID":67960,"ELEMENT_SET_NO":999,"REV_AT_EPOCH":259,"BSTAR":-0.0036874931,"MEAN_MOTION_DOT":-0.01433746,"MEAN_MOTION_DDOT":0.00059781828},{"OBJECT_NAME":"STARLINK-36912","OBJECT_ID":"2026-038A","EPOCH":"2026-03-05T22:00:01.999584","MEAN_MOTION":15.99495061,"ECCENTRICITY":0.00010875,"INCLINATION":97.2762,"RA_OF_ASC_NODE":74.9001,"ARG_OF_PERICENTER":71.8501,"MEAN_ANOMALY":289.5032,"EPHEMERIS_TYPE":0,"CLASSIFICATION_TYPE":"U","NORAD_CAT_ID":67961,"ELEMENT_SET_NO":999,"REV_AT_EPOCH":259,"BSTAR":-0.0030983193,"MEAN_MOTION_DOT":-0.01514854,"MEAN_MOTION_DDOT":0.00070315993},{"OBJECT_NAME":"STARLINK-36881","OBJECT_ID":"2026-038B","EPOCH":"2026-03-05T22:00:01.999584","MEAN_MOTION":15.99573297,"ECCENTRICITY":0.0001054,"INCLINATION":97.276,"RA_OF_ASC_NODE":74.9008,"ARG_OF_PERICENTER":71.7747,"MEAN_ANOMALY":291.4992,"EPHEMERIS_TYPE":0,"CLASSIFICATION_TYPE":"U","NORAD_CAT_ID":67962,"ELEMENT_SET_NO":999,"REV_AT_EPOCH":259,"BSTAR":-0.0030800101,"MEAN_MOTION_DOT":-0.01512553,"MEAN_MOTION_DDOT":0.00070179067},{"OBJECT_NAME":"STARLINK-36357","OBJECT_ID":"2026-038C","EPOCH":"2026-03-05T22:00:01.999584","MEAN_MOTION":15.99815898,"ECCENTRICITY":0.00011491,"INCLINATION":97.2757,"RA_OF_ASC_NODE":74.9033,"ARG_OF_PERICENTER":70.6254,"MEAN_ANOMALY":297.7464,"EPHEMERIS_TYPE":0,"CLASSIFICATION_TYPE":"U","NORAD_CAT_ID":67963,"ELEMENT_SET_NO":999,"REV_AT_EPOCH":259,"BSTAR":-0.0030420352,"MEAN_MOTION_DOT":-0.01514432,"MEAN_MOTION_DDOT":0.00070532378},{"OBJECT_NAME":"STARLINK-36349","OBJECT_ID":"2026-038D","EPOCH":"2026-03-05T22:00:01.999584","MEAN_MOTION":15.9970073,"ECCENTRICITY":0.00011844,"INCLINATION":97.2755,"RA_OF_ASC_NODE":74.9018,"ARG_OF_PERICENTER":72.8734,"MEAN_ANOMALY":292.944,"EPHEMERIS_TYPE":0,"CLASSIFICATION_TYPE":"U","NORAD_CAT_ID":67964,"ELEMENT_SET_NO":999,"REV_AT_EPOCH":259,"BSTAR":-0.0030754252,"MEAN_MOTION_DOT":-0.01521086,"MEAN_MOTION_DDOT":0.00071017245},{"OBJECT_NAME":"STARLINK-36806","OBJECT_ID":"2026-038E","EPOCH":"2026-03-05T22:00:01.999584","MEAN_MOTION":15.99956444,"ECCENTRICITY":0.00011076,"INCLINATION":97.2752,"RA_OF_ASC_NODE":74.9043,"ARG_OF_PERICENTER":67.4952,"MEAN_ANOMALY":303.8281,"EPHEMERIS_TYPE":0,"CLASSIFICATION_TYPE":"U","NORAD_CAT_ID":67965,"ELEMENT_SET_NO":999,"REV_AT_EPOCH":259,"BSTAR":-0.0030209917,"MEAN_MOTION_DOT":-0.01515899,"MEAN_MOTION_DDOT":0.00070771008},{"OBJECT_NAME":"STARLINK-36820","OBJECT_ID":"2026-038F","EPOCH":"2026-03-05T22:00:01.999584","MEAN_MOTION":16.00068596,"ECCENTRICITY":0.00010981,"INCLINATION":97.2752,"RA_OF_ASC_NODE":74.9055,"ARG_OF_PERICENTER":75.7037,"MEAN_ANOMALY":298.0986,"EPHEMERIS_TYPE":0,"CLASSIFICATION_TYPE":"U","NORAD_CAT_ID":67966,"ELEMENT_SET_NO":999,"REV_AT_EPOCH":259,"BSTAR":-0.0029793083,"MEAN_MOTION_DOT":-0.01504614,"MEAN_MOTION_DDOT":0.00069883694},{"OBJECT_NAME":"STARLINK-36819","OBJECT_ID":"2026-038G","EPOCH":"2026-03-05T22:00:01.999584","MEAN_MOTION":16.00193341,"ECCENTRICITY":0.00011502,"INCLINATION":97.275,"RA_OF_ASC_NODE":74.9065,"ARG_OF_PERICENTER":68.0456,"MEAN_ANOMALY":308.4262,"EPHEMERIS_TYPE":0,"CLASSIFICATION_TYPE":"U","NORAD_CAT_ID":67967,"ELEMENT_SET_NO":999,"REV_AT_EPOCH":259,"BSTAR":-0.0029660013,"MEAN_MOTION_DOT":-0.01508468,"MEAN_MOTION_DDOT":0.0007031542},{"OBJECT_NAME":"STARLINK-36812","OBJECT_ID":"2026-038H","EPOCH":"2026-03-05T22:00:01.999584","MEAN_MOTION":16.00300517,"ECCENTRICITY":0.00011127,"INCLINATION":97.2747,"RA_OF_ASC_NODE":74.907,"ARG_OF_PERICENTER":70.6449,"MEAN_ANOMALY":308.1205,"EPHEMERIS_TYPE":0,"CLASSIFICATION_TYPE":"U","NORAD_CAT_ID":67968,"ELEMENT_SET_NO":999,"REV_AT_EPOCH":259,"BSTAR":-0.0029515931,"MEAN_MOTION_DOT":-0.01510255,"MEAN_MOTION_DDOT":0.00070555443},{"OBJECT_NAME":"STARLINK-36709","OBJECT_ID":"2026-038J","EPOCH":"2026-03-05T22:00:01.999584","MEAN_MOTION":16.00550286,"ECCENTRICITY":0.00011481,"INCLINATION":97.2747,"RA_OF_ASC_NODE":74.9097,"ARG_OF_PERICENTER":67.0299,"MEAN_ANOMALY":317.1848,"EPHEMERIS_TYPE":0,"CLASSIFICATION_TYPE":"U","NORAD_CAT_ID":67969,"ELEMENT_SET_NO":999,"REV_AT_EPOCH":259,"BSTAR":-0.002870093,"MEAN_MOTION_DOT":-0.01489777,"MEAN_MOTION_DDOT":0.00068984139},{"OBJECT_NAME":"STARLINK-36319","OBJECT_ID":"2026-038K","EPOCH":"2026-03-05T22:00:01.999584","MEAN_MOTION":16.00420071,"ECCENTRICITY":0.00012025,"INCLINATION":97.2746,"RA_OF_ASC_NODE":74.9083,"ARG_OF_PERICENTER":61.6206,"MEAN_ANOMALY":319.8458,"EPHEMERIS_TYPE":0,"CLASSIFICATION_TYPE":"U","NORAD_CAT_ID":67970,"ELEMENT_SET_NO":999,"REV_AT_EPOCH":256,"BSTAR":-0.0028857695,"MEAN_MOTION_DOT":-0.01486915,"MEAN_MOTION_DDOT":0.00068637186}]
